NORAD_CAT_ID,OBJECT_NAME,OBJECT_TYPE,EPOCH,MEAN_MOTION,ECCENTRICITY,INCLINATION,RA_OF_ASC_NODE,ARG_OF_PERICENTER,MEAN_ANOMALY,BSTAR,MEAN_MOTION_DOT,MEAN_MOTION_DDOT,TLE_LINE0,TLE_LINE1,TLE_LINE2,SEMIMAJOR_AXIS,PERIOD,APOGEE,PERIGEE,DECAYED
49409.0,STARLINK-3075,PAYLOAD,2022-08-01 11:17:02,15.08839486,0.0001698,53.2181,17.8691,57.5654,302.5502,6.1382e-05,6.89e-06,0.0,0 STARLINK-3075,1 49409U 21104B   22213.47017031  .00000689  00000-0  61382-4 0  9994,2 49409  53.2181  17.8691 0001698  57.5654 302.5502 15.08839486 39939,6917.882,95.438,540.922,538.572,0.0
49409.0,STARLINK-3075,PAYLOAD,2022-08-01 17:38:34,15.08842973,0.0001698,53.218,16.6795,58.2082,301.9075,8.441299999999999e-05,1.056e-05,0.0,0 STARLINK-3075,1 49409U 21104B   22213.73512705  .00001056  00000-0  84413-4 0  9990,2 49409  53.2180  16.6795 0001698  58.2082 301.9075 15.08842973 39970,6917.871,95.437,540.911,538.562,0.0
49409.0,STARLINK-3075,PAYLOAD,2022-08-02 11:07:52,15.08811217,0.0001683,53.2178,13.409,25.8446,334.2630000000001,-0.00017358,-3.047e-05,0.0,0 STARLINK-3075,1 49409U 21104B   22214.46379852 -.00003047  00000-0 -17358-3 0  9992,2 49409  53.2178  13.4090 0001683  25.8446 334.2630 15.08811217 40085,6917.968000000003,95.439,540.998,538.669,0.0
49409.0,STARLINK-3075,PAYLOAD,2022-08-03 10:58:38,15.08833707,0.0001644,53.2175,8.9479,50.6526,309.4612,-3.7666e-05,-8.87e-06,0.0,0 STARLINK-3075,1 49409U 21104B   22215.45738884 -.00000887  00000-0 -37666-4 0  9990,2 49409  53.2175   8.9479 0001644  50.6526 309.4612 15.08833707 40233,6917.9,95.438,540.9019999999998,538.627,0.0
49409.0,STARLINK-3075,PAYLOAD,2022-08-03 20:30:57,15.08837422,0.0001717,53.2177,7.1639,52.058,308.0567,1.7369999999999996e-06,-2.6e-06,0.0,0 STARLINK-3075,1 49409U 21104B   22215.85482702 -.00000260  00000-0  17370-5 0  9994,2 49409  53.2177   7.1639 0001717  52.0580 308.0567 15.08837422 40299,6917.888000000001,95.438,540.941,538.565,0.0
49409.0,STARLINK-3075,PAYLOAD,2022-08-04 12:24:48,15.08824208,0.0001748,53.2179,4.19,47.119,312.9948,0.00028946,4.320000000000001e-05,0.0,0 STARLINK-3075,1 49409U 21104B   22216.51722880  .00004320  00000-0  28946-3 0  9991,2 49409  53.2179   4.1900 0001748  47.1190 312.9948 15.08824208 40391,6917.929,95.439,541.003,538.5840000000002,0.0
49409.0,STARLINK-3075,PAYLOAD,2022-08-04 20:21:44,15.08829708,0.0001769,53.218,2.7034,47.0505,313.0636,0.00029912,4.474e-05,0.0,0 STARLINK-3075,1 49409U 21104B   22216.84842827  .00004474  00000-0  29912-3 0  9995,2 49409  53.2180   2.7034 0001769  47.0505 313.0636 15.08829708 40449,6917.9119999999975,95.438,541.001,538.553,0.0
49409.0,STARLINK-3075,PAYLOAD,2022-08-05 09:04:48,15.0884935,0.0001771,53.218,0.3244,54.5005,305.6152,0.00015971,2.255e-05,0.0,0 STARLINK-3075,1 49409U 21104B   22217.37833929  .00002255  00000-0  15971-3 0  9992,2 49409  53.2180   0.3244 0001771  54.5005 305.6152 15.08849350 40521,6917.852,95.437,540.942,538.492,0.0
49409.0,STARLINK-3075,PAYLOAD,2022-08-05 13:50:57,15.08849689,0.0001768,53.2183,359.4324,54.6976,305.4181,0.0001554999999999,2.188e-05,0.0,0 STARLINK-3075,1 49409U 21104B   22217.57705830  .00002188  00000-0  15550-3 0  9991,2 49409  53.2183 359.4324 0001768  54.6976 305.4181 15.08849689 40553,6917.851,95.437,540.939,538.493,0.0
49409.0,STARLINK-3075,PAYLOAD,2022-08-06 08:55:35,15.08843609,0.0001766999999999,53.2184,355.8642,55.2694,304.8465,3.6508e-05,2.93e-06,0.0,0 STARLINK-3075,1 49409U 21104B   22218.37194257  .00000293  00000-0  36508-4 0  9997,2 49409  53.2184 355.8642 0001767  55.2694 304.8465 15.08843609 40677,6917.869000000002,95.437,540.957,538.512,0.0
49409.0,STARLINK-3075,PAYLOAD,2022-08-06 18:27:54,15.08851077,0.0001612,53.2183,354.08,56.7847,303.33,4.3393e-05,4.03e-06,0.0,0 STARLINK-3075,1 49409U 21104B   22218.76937526  .00000403  00000-0  43393-4 0  9997,2 49409  53.2183 354.0800 0001612  56.7847 303.3300 15.08851077 41815,6917.847,95.437,540.827,538.596,0.0
49409.0,STARLINK-3075,PAYLOAD,2022-08-07 02:24:50,15.08841816,0.0001564999999999,53.2182,352.5921,56.4348,303.6794,-5.060100000000001e-05,-1.093e-05,0.0,0 STARLINK-3075,1 49409U 21104B   22219.10058223 -.00001093  00000-0 -50601-4 0  9992,2 49409  53.2182 352.5921 0001565  56.4348 303.6794 15.08841816 41866,6917.875,95.437,540.822,538.6569999999998,0.0
49409.0,STARLINK-3075,PAYLOAD,2022-08-07 08:46:22,15.08846114,0.000231,53.2171,351.4065,37.0772,323.0379,-2.1311e-05,-6.28e-06,0.0,0 STARLINK-3075,1 49409U 21104B   22219.36553949 -.00000628  00000-0 -21311-4 0  9994,2 49409  53.2171 351.4065 0002310  37.0772 323.0379 15.08846114 40822,6917.861999999999,95.437,541.325,538.129,0.0
49409.0,STARLINK-3075,PAYLOAD,2022-08-07 15:07:54,15.08846884,0.0002041,53.2182,350.2164,43.9361,316.1793,-1.225e-05,-4.83e-06,0.0,0 STARLINK-3075,1 49409U 21104B   22219.63049761 -.00000483  00000-0 -12250-4 0  9997,2 49409  53.2182 350.2164 0002041  43.9361 316.1793 15.08846884 40863,6917.859,95.437,541.136,538.312,0.0
49409.0,STARLINK-3075,PAYLOAD,2022-08-08 02:15:35,15.08856753,0.0001626,53.2182,348.1325,52.3514,307.7626,9.6821e-05,1.254e-05,0.0,0 STARLINK-3075,1 49409U 21104B   22220.09416614  .00001254  00000-0  96821-4 0  9995,2 49409  53.2182 348.1325 0001626  52.3514 307.7626 15.08856753 42016,6917.829000000002,95.436,540.819,538.569,0.0
49409.0,STARLINK-3075,PAYLOAD,2022-08-08 11:47:55,15.08848362,0.0001609,53.2185,346.3489,56.7423,303.3723,3.9496e-05,3.41e-06,0.0,0 STARLINK-3075,1 49409U 21104B   22220.49161066  .00000341  00000-0  39496-4 0  9998,2 49409  53.2185 346.3489 0001609  56.7423 303.3723 15.08848362 40990,6917.855,95.437,540.8330000000002,538.607,0.0
49409.0,STARLINK-3075,PAYLOAD,2022-08-08 18:09:27,15.08853461,0.0001584,53.2184,345.1587,58.4951,301.6195,7.6762e-05,9.34e-06,0.0,0 STARLINK-3075,1 49409U 21104B   22220.75656487  .00000934  00000-0  76762-4 0  9998,2 49409  53.2184 345.1587 0001584  58.4951 301.6195 15.08853461 41038,6917.839,95.437,540.8,538.6080000000002,0.0
49409.0,STARLINK-3075,PAYLOAD,2022-08-09 08:27:55,15.08851697,0.000149,53.2178,342.4821,64.0583,296.0563,0.00013448,1.854e-05,0.0,0 STARLINK-3075,1 49409U 21104B   22221.35272431  .00001854  00000-0  13448-3 0  9991,2 49409  53.2178 342.4821 0001490  64.0583 296.0563 15.08851697 41127,6917.845,95.437,540.74,538.679,0.0
49409.0,STARLINK-3075,PAYLOAD,2022-08-09 13:14:05,15.08828792,0.0001384,53.2179,341.5905,64.5716,295.5419,0.00027474,4.086e-05,0.0,0 STARLINK-3075,1 49409U 21104B   22221.55145592  .00004086  00000-0  27474-3 0  9994,2 49409  53.2179 341.5905 0001384  64.5716 295.5419 15.08828792 41153,6917.915,95.438,540.737,538.822,0.0
49409.0,STARLINK-3075,PAYLOAD,2022-08-10 08:18:43,15.0882928,0.0001575,53.218,338.0227,59.4194,300.6953,-7.9173e-05,-1.547e-05,0.0,0 STARLINK-3075,1 49409U 21104B   22222.34634146 -.00001547  00000-0 -79173-4 0  9995,2 49409  53.2180 338.0227 0001575  59.4194 300.6953 15.08829280 41275,6917.913000000001,95.438,540.868,538.689,0.0
49409.0,STARLINK-3075,PAYLOAD,2022-08-10 13:04:53,15.08829265,0.0001585999999999,53.2181,337.1308,59.0689,301.0459,-7.7785e-05,-1.525e-05,0.0,0 STARLINK-3075,1 49409U 21104B   22222.54506249 -.00001525  00000-0 -77785-4 0  9992,2 49409  53.2181 337.1308 0001586  59.0689 301.0459 15.08829265 42385,6917.913000000001,95.438,540.875,538.681,0.0
49409.0,STARLINK-3075,PAYLOAD,2022-08-11 12:55:40,15.08833214,0.0001601,53.2182,332.6712,57.2914,302.8232,8.5676e-05,1.076e-05,0.0,0 STARLINK-3075,1 49409U 21104B   22223.53865812  .00001076  00000-0  85676-4 0  9993,2 49409  53.2182 332.6712 0001601  57.2914 302.8232 15.08833214 42538,6917.901,95.438,540.874,538.659,0.0
49409.0,STARLINK-3075,PAYLOAD,2022-08-12 12:46:27,15.08833429,0.0001626,53.2176,328.2095,52.3214,307.7925,0.00011913,1.608e-05,0.0,0 STARLINK-3075,1 49409U 21104B   22224.53226200  .00001608  00000-0  11913-3 0  9999,2 49409  53.2176 328.2095 0001626  52.3214 307.7925 15.08833429 41600,6917.9,95.438,540.89,538.641,0.0
49409.0,STARLINK-3075,PAYLOAD,2022-08-12 15:57:13,15.08835893,0.0001629999999999,53.2177,327.6147,54.6621,305.4523,0.00013859,1.918e-05,0.0,0 STARLINK-3075,1 49409U 21104B   22224.66474056  .00001918  00000-0  13859-3 0  9992,2 49409  53.2177 327.6147 0001630  54.6621 305.4523 15.08835893 41622,6917.893,95.438,540.886,538.63,0.0
49409.0,STARLINK-3075,PAYLOAD,2022-08-13 14:12:37,15.08836357,0.0001634,53.218,323.4518,59.6815,300.4338,8.5023e-06,-1.53e-06,0.0,0 STARLINK-3075,1 49409U 21104B   22225.59210648 -.00000153  00000-0  85023-5 0  9995,2 49409  53.2180 323.4518 0001634  59.6815 300.4338 15.08836357 41766,6917.892,95.438,540.887,538.626,0.0
49409.0,STARLINK-3075,PAYLOAD,2022-08-14 10:52:37,15.08847827,0.0001663,53.2181,319.5862,59.8678,300.2479,0.00011839,1.597e-05,0.0,0 STARLINK-3075,1 49409U 21104B   22226.45321452  .00001597  00000-0  11839-3 0  9991,2 49409  53.2181 319.5862 0001663  59.8678 300.2479 15.08847827 42978,6917.856,95.437,540.872,538.571,0.0
49409.0,STARLINK-3075,PAYLOAD,2022-08-14 12:28:00,15.08847922,0.0001659,53.2181,319.2889,59.8087,300.3069,0.00011856,1.6e-05,0.0,0 STARLINK-3075,1 49409U 21104B   22226.51945429  .00001600  00000-0  11856-3 0  9998,2 49409  53.2181 319.2889 0001659  59.8087 300.3069 15.08847922 41907,6917.856,95.437,540.869,538.5740000000002,0.0
49409.0,STARLINK-3075,PAYLOAD,2022-08-14 14:03:23,15.08848673,0.0001658,53.2177,318.9913,55.8225,304.2924,0.00012147,1.646e-05,0.0,0 STARLINK-3075,1 49409U 21104B   22226.58569359  .00001646  00000-0  12147-3 0  9993,2 49409  53.2177 318.9913 0001658  55.8225 304.2924 15.08848673 41913,6917.854,95.437,540.866,538.572,0.0
49409.0,STARLINK-3075,PAYLOAD,2022-08-15 04:21:52,15.0883747,0.0001701,53.2178,316.3162,53.6716,306.4433,5.3418e-05,5.62e-06,0.0,0 STARLINK-3075,1 49409U 21104B   22227.18186228  .00000562  00000-0  53418-4 0  9993,2 49409  53.2178 316.3162 0001701  53.6716 306.4433 15.08837470 43084,6917.888000000001,95.438,540.93,538.576,0.0
